ONEWEB-0236             
1 48797U 21045AG  26196.54522708  .00000214  00000+0  53546-3 0  9996
2 48797  87.8984 253.5554 0002151  95.9596 264.1780 13.15548910247987
ONEWEB-0248             
1 48798U 21045AH  26196.17760870  .00000031  00000+0  48121-4 0  9991
2 48798  87.8995 253.6154 0002448 106.6718 253.4681 13.15549505248097
ONEWEB-0225             
1 48799U 21045AJ  26196.19980040 -.00000019  00000+0 -85643-4 0  9995
2 48799  87.8988 253.6177 0002239 112.1710 247.9658 13.15547866248109
ONEWEB-0215             
1 48800U 21045AK  26196.54997164  .00000090  00000+0  20395-3 0  9991
2 48800  87.8997 253.5321 0002422 113.9361 246.2023 13.15549259248024
ONEWEB-0216             
1 48801U 21045AL  26196.17919952 -.00000012  00000+0 -65868-4 0  9991
2 48801  87.8993 253.6199 0002012  97.3403 262.7956 13.15548532247987
ONEWEB-0239             
1 48802U 21045AM  26196.18395475 -.00000013  00000+0 -68325-4 0  9993
2 48802  87.8981 253.6229 0002734 111.1498 248.9925 13.15548141248023
ONEWEB-0249             
1 48967U 21060A   26196.47573575  .00000002  00000+0 -27545-4 0  9999
2 48967  87.9080 223.1588 0002170  95.3976 264.7403 13.16592290243335
ONEWEB-0250             
1 48968U 21060B   26196.75886383  .00000113  00000+0  22799-3 0  9992
2 48968  87.9080 220.7658 0003061  85.6250 274.5236 13.25835589244003
ONEWEB-0252             
1 48970U 21060D   26196.50662809  .00000049  00000+0  95226-4 0  9997
2 48970  87.9078 223.1450 0001858  96.4106 263.7236 13.16595008243381
ONEWEB-0253             
1 48971U 21060E   26196.49554652 -.00000003  00000+0 -42145-4 0  9996
2 48971  87.9079 223.1525 0002215  93.5373 266.6012 13.16595129243319
ONEWEB-0254             
1 48972U 21060F   26196.50505273  .00000036  00000+0  61495-4 0  9997
2 48972  87.9080 223.1489 0002321  99.0591 261.0802 13.16593965243314
ONEWEB-0255             
1 48973U 21060G   26196.54305039  .00000061  00000+0  12479-3 0  9995
2 48973  87.9080 223.1472 0002161  98.2698 261.8678 13.16594293243390
ONEWEB-0256             
1 48974U 21060H   26196.49317110 -.00001155  00000+0 -30560-2 0  9990
2 48974  87.9072 223.1600 0001771  92.9280 267.2054 13.16583303243353
ONEWEB-0257             
1 48975U 21060J   26196.52563177  .00000309  00000+0  77505-3 0  9990
2 48975  87.9079 223.1421 0002084 100.3125 259.8241 13.16595849243311
ONEWEB-0258             
1 48976U 21060K   26196.52721736  .00000156  00000+0  37349-3 0  9990
2 48976  87.9081 223.1544 0002141  96.5700 263.5675 13.16594158243326
ONEWEB-0259             
1 48977U 21060L   26196.44488780  .00000067  00000+0  14091-3 0  9991
2 48977  87.9079 223.1689 0002269  97.4349 262.7040 13.16593696243349
ONEWEB-0260             
1 48978U 21060M   26196.51215676  .00000053  00000+0  10566-3 0  9990
2 48978  87.9073 223.1561 0001679  94.1009 266.0314 13.16595466243331
ONEWEB-0261             
1 48979U 21060N   26196.48209868 -.00000007  00000+0 -50753-4 0  9997
2 48979  87.9077 223.1628 0002072 102.5925 257.5437 13.16593846243385
ONEWEB-0262             
1 48980U 21060P   26196.53830014  .00000049  00000+0  94529-4 0  9991
2 48980  87.9080 223.1383 0002347  96.0687 264.0711 13.16594022243358
ONEWEB-0263             
1 48981U 21060Q   26196.49396621 -.00000004  00000+0 -45197-4 0  9998
2 48981  87.9080 223.1591 0002191 102.3832 257.7544 13.16593783243312
ONEWEB-0264             
1 48982U 21060R   26196.53116091  .00000143  00000+0  34084-3 0  9999
2 48982  87.9072 223.1537 0001921  97.8431 262.2918 13.16592942243320
ONEWEB-0266             
1 48984U 21060T   26196.47653968  .00000029  00000+0  41118-4 0  9993
2 48984  87.9082 223.1559 0002121  91.3529 268.7845 13.16595811243303
ONEWEB-0267             
1 48985U 21060U   26196.48763512 -.00000018  00000+0 -81740-4 0  9997
2 48985  87.9080 223.1506 0002047  98.9119 261.2243 13.16593914243312
ONEWEB-0268             
1 48986U 21060V   26196.53196611  .00000210  00000+0  51520-3 0  9998
2 48986  87.9078 223.1511 0001926  93.8985 266.2366 13.16594362243584
ONEWEB-0269             
1 48987U 21060W   26196.51296702  .00000032  00000+0  50673-4 0  9990
2 48987  87.9073 223.1554 0001965  89.5973 270.5383 13.16593732243351
ONEWEB-0270             
1 48988U 21060X   26196.53036211 -.00001603  00000+0 -42274-2 0  9993
2 48988  87.9084 223.1533 0002297 100.4952 259.6438 13.16602414243391
ONEWEB-0271             
1 48989U 21060Y   26196.51771843  .00000155  00000+0  37304-3 0  9997
2 48989  87.9077 223.1453 0002118 100.6770 259.4599 13.16594265243397
ONEWEB-0272             
1 48990U 21060Z   26196.53987708  .00000083  00000+0  18351-3 0  9991
2 48990  87.9074 223.1514 0001820  98.7829 261.3508 13.16596153243340
ONEWEB-0273             
1 48991U 21060AA  26196.48604874 -.00000007  00000+0 -50888-4 0  9996
2 48991  87.9075 223.1632 0002163  96.7540 263.3838 13.16593607243318
ONEWEB-0274             
1 48992U 21060AB  26196.51136980  .00000111  00000+0  25787-3 0  9992
2 48992  87.9068 223.1579 0001740  95.2517 264.8812 13.16595418243353
