OBJECT_NAME,OBJECT_ID,EPOCH,MEAN_MOTION,ECCENTRICITY,INCLINATION,RA_OF_ASC_NODE,ARG_OF_PERICENTER,MEAN_ANOMALY,EPHEMERIS_TYPE,CLASSIFICATION_TYPE,NORAD_CAT_ID,ELEMENT_SET_NO,REV_AT_EPOCH,BSTAR,MEAN_MOTION_DOT,MEAN_MOTION_DDOT
ONEWEB-0236,2021-045AG,2026-07-15T13:05:07.619712,13.15548910,.0002151,87.8984,253.5554,95.9596,264.1780,0,U,48797,999,24798,.53546E-3,.214E-5,0
ONEWEB-0248,2021-045AH,2026-07-15T04:15:45.391680,13.15549505,.00024481,87.8995,253.6154,106.6718,253.4681,0,U,48798,999,24809,.48120589E-4,.31E-6,0
ONEWEB-0225,2021-045AJ,2026-07-15T04:47:42.754560,13.15547866,.0002239,87.8988,253.6177,112.1710,247.9658,0,U,48799,999,24810,-.85642947E-4,-.19E-6,0
ONEWEB-0215,2021-045AK,2026-07-15T13:11:57.549696,13.15549259,.0002422,87.8997,253.5321,113.9361,246.2023,0,U,48800,999,24802,.20395E-3,.9E-6,0
ONEWEB-0216,2021-045AL,2026-07-15T04:18:02.838528,13.15548532,.00020129,87.8993,253.6199,97.3403,262.7956,0,U,48801,999,24798,-.65867623E-4,-.12E-6,0
ONEWEB-0239,2021-045AM,2026-07-15T04:24:53.690400,13.15548141,.00027343,87.8981,253.6229,111.1498,248.9925,0,U,48802,999,24802,-.68324926E-4,-.13E-6,0
ONEWEB-0249,2021-060A,2026-07-15T11:25:03.568800,13.16592290,.00021704,87.9080,223.1588,95.3976,264.7403,0,U,48967,999,24333,-.27544961E-4,.2E-7,0
ONEWEB-0250,2021-060B,2026-07-15T18:12:45.834912,13.25835589,.0003061,87.9080,220.7658,85.6250,274.5236,0,U,48968,999,24400,.22799E-3,.113E-5,0
ONEWEB-0252,2021-060D,2026-07-15T12:09:32.666976,13.16595008,.00018587,87.9078,223.1450,96.4106,263.7236,0,U,48970,999,24338,.95225569E-4,.49E-6,0
ONEWEB-0253,2021-060E,2026-07-15T11:53:35.219328,13.16595129,.00022153,87.9079,223.1525,93.5373,266.6012,0,U,48971,999,24331,-.42145233E-4,-.3E-7,0
ONEWEB-0254,2021-060F,2026-07-15T12:07:16.555872,13.16593965,.00023217,87.9080,223.1489,99.0591,261.0802,0,U,48972,999,24331,.61495213E-4,.36E-6,0
ONEWEB-0255,2021-060G,2026-07-15T13:01:59.553696,13.16594293,.00021616,87.9080,223.1472,98.2698,261.8678,0,U,48973,999,24339,.12479106E-3,.61E-6,0
ONEWEB-0256,2021-060H,2026-07-15T11:50:09.983040,13.16583303,.00017719,87.9072,223.1600,92.9280,267.2054,0,U,48974,999,24335,-.30559747E-2,-.1155E-4,0
ONEWEB-0257,2021-060J,2026-07-15T12:36:54.584928,13.16595849,.00020843,87.9079,223.1421,100.3125,259.8241,0,U,48975,999,24331,.775045E-3,.309E-5,0
ONEWEB-0258,2021-060K,2026-07-15T12:39:11.579904,13.16594158,.00021415,87.9081,223.1544,96.5700,263.5675,0,U,48976,999,24332,.37348615E-3,.156E-5,0
ONEWEB-0259,2021-060L,2026-07-15T10:40:38.305920,13.16593696,.00022695,87.9079,223.1689,97.4349,262.7040,0,U,48977,999,24334,.14090508E-3,.67E-6,0
ONEWEB-0260,2021-060M,2026-07-15T12:17:30.344064,13.16595466,.00016797,87.9073,223.1561,94.1009,266.0314,0,U,48978,999,24333,.10565878E-3,.53E-6,0
ONEWEB-0261,2021-060N,2026-07-15T11:34:13.325952,13.16593846,.00020726,87.9077,223.1628,102.5925,257.5437,0,U,48979,999,24338,-.50753099E-4,-.7E-7,0
ONEWEB-0262,2021-060P,2026-07-15T12:55:09.132096,13.16594022,.00023471,87.9080,223.1383,96.0687,264.0711,0,U,48980,999,24335,.94528659E-4,.49E-6,0
ONEWEB-0263,2021-060Q,2026-07-15T11:51:18.680544,13.16593783,.00021911,87.9080,223.1591,102.3832,257.7544,0,U,48981,999,24331,-.4519742E-4,-.4E-7,0
ONEWEB-0264,2021-060R,2026-07-15T12:44:52.302624,13.16592942,.00019218,87.9072,223.1537,97.8431,262.2918,0,U,48982,999,24332,.34083725E-3,.143E-5,0
ONEWEB-0266,2021-060T,2026-07-15T11:26:13.028352,13.16595811,.00021215,87.9082,223.1559,91.3529,268.7845,0,U,48984,999,24330,.41118132E-4,.29E-6,0
ONEWEB-0267,2021-060U,2026-07-15T11:42:11.674368,13.16593914,.0002047,87.9080,223.1506,98.9119,261.2243,0,U,48985,999,24331,-.81739874E-4,-.18E-6,0
ONEWEB-0268,2021-060V,2026-07-15T12:46:01.871904,13.16594362,.00019269,87.9078,223.1511,93.8985,266.2366,0,U,48986,999,24358,.515198E-3,.21E-5,0
ONEWEB-0269,2021-060W,2026-07-15T12:18:40.350528,13.16593732,.00019653,87.9073,223.1554,89.5973,270.5383,0,U,48987,999,24335,.50672614E-4,.32E-6,0
ONEWEB-0270,2021-060X,2026-07-15T12:43:43.286304,13.16602414,.0002297,87.9084,223.1533,100.4952,259.6438,0,U,48988,999,24339,-.42273558E-2,-.1603E-4,0
ONEWEB-0271,2021-060Y,2026-07-15T12:25:30.872352,13.16594265,.0002118,87.9077,223.1453,100.6770,259.4599,0,U,48989,999,24339,.37304439E-3,.155E-5,0
ONEWEB-0272,2021-060Z,2026-07-15T12:57:25.379712,13.16596153,.00018203,87.9074,223.1514,98.7829,261.3508,0,U,48990,999,24334,.18351425E-3,.83E-6,0
ONEWEB-0273,2021-060AA,2026-07-15T11:39:54.611136,13.16593607,.00021631,87.9075,223.1632,96.7540,263.3838,0,U,48991,999,24331,-.50887973E-4,-.7E-7,0
ONEWEB-0274,2021-060AB,2026-07-15T12:16:22.350720,13.16595418,.00017401,87.9068,223.1579,95.2517,264.8812,0,U,48992,999,24335,.25786728E-3,.111E-5,0
